1 29155U 06018A   12003.06556799 -.00000239  00000-0  10000-3 0  8897
2 29155 000.3434 081.2623 0001390 338.3671 351.2508 01.00278027 20580